[{"OBJECT_NAME":"STARLINK-34965","OBJECT_ID":"2025-175N","EPOCH":"2026-03-09T15:23:17.348928","MEAN_MOTION":15.05654944,"ECCENTRICITY":0.0003384,"INCLINATION":97.6003,"RA_OF_ASC_NODE":302.6166,"ARG_OF_PERICENTER":86.2228,"MEAN_ANOMALY":273.9386,"EPHEMERIS_TYPE":0,"CLASSIFICATION_TYPE":"U","NORAD_CAT_ID":65186,"ELEMENT_SET_NO":999,"REV_AT_EPOCH":3263,"BSTAR":0.00067479,"MEAN_MOTION_DOT":9.691e-5,"MEAN_MOTION_DDOT":0},{"OBJECT_NAME":"OBJECT H","OBJECT_ID":"2017-042H","EPOCH":"2026-03-09T21:54:40.929408","MEAN_MOTION":15.07257911,"ECCENTRICITY":0.00117342,"INCLINATION":97.4058,"RA_OF_ASC_NODE":233.05,"ARG_OF_PERICENTER":93.954,"MEAN_ANOMALY":266.303,"EPHEMERIS_TYPE":0,"CLASSIFICATION_TYPE":"U","NORAD_CAT_ID":42832,"ELEMENT_SET_NO":999,"REV_AT_EPOCH":47198,"BSTAR":0.00041037265,"MEAN_MOTION_DOT":6.138e-5,"MEAN_MOTION_DDOT":0}]
